STARLINK-2748
1 18694C 21044BJ  21326.18281102  .00004217  00000-0  28263-3 0  3261
2 18694  53.0529 287.9138 0001630  66.0197 243.2757 15.06386340    11
